NORAD_CAT_ID,OBJECT_NAME,OBJECT_TYPE,EPOCH,MEAN_MOTION,ECCENTRICITY,INCLINATION,RA_OF_ASC_NODE,ARG_OF_PERICENTER,MEAN_ANOMALY,BSTAR,MEAN_MOTION_DOT,MEAN_MOTION_DDOT,TLE_LINE0,TLE_LINE1,TLE_LINE2,SEMIMAJOR_AXIS,PERIOD,APOGEE,PERIGEE,DECAYED
52280.0,STARLINK-3764,PAYLOAD,2024-02-24 13:58:03,15.08891299,0.000163,53.2156,209.549,79.8581,280.2595,-0.00071197,-0.00011617,0.0,0 STARLINK-3764,1 52280U 22041V   24055.58198509 -.00011617  00000-0 -71197-3 0  9993,2 52280  53.2156 209.5490 0001630  79.8581 280.2595 15.08891299102037,6917.724,95.434,540.716,538.461,0.0
52280.0,STARLINK-3764,PAYLOAD,2024-02-24 17:08:50,15.08839629,0.0001343,53.2154,208.9545,91.5899,268.5247,0.00012491,1.701e-05,0.0,0 STARLINK-3764,1 52280U 22041V   24055.71447821  .00001701  00000-0  12491-3 0  9995,2 52280  53.2154 208.9545 0001343  91.5899 268.5247 15.08839629103272,6917.882,95.438,540.676,538.817,0.0
52280.0,STARLINK-3764,PAYLOAD,2024-02-25 10:38:06,15.08835665,0.0001264,53.2164,205.6851,90.8209,269.2928,1.7703e-05,-6e-08,0.0,0 STARLINK-3764,1 52280U 22041V   24056.44312563 -.00000006  00000-0  17703-4 0  9990,2 52280  53.2164 205.6851 0001264  90.8209 269.2928 15.08835665103388,6917.894,95.438,540.633,538.884,0.0
52280.0,STARLINK-3764,PAYLOAD,2024-02-25 13:48:52,15.08837016,0.0001276,53.2165,205.0905,90.4908,269.623,2.5409e-05,1.17e-06,0.0,0 STARLINK-3764,1 52280U 22041V   24056.57560499  .00000117  00000-0  25409-4 0  9991,2 52280  53.2165 205.0905 0001276  90.4908 269.6230 15.08837016102187,6917.89,95.438,540.637,538.872,0.0
52280.0,STARLINK-3764,PAYLOAD,2024-02-25 16:59:38,15.08839529,0.0001232,53.2166,204.4962,91.057,269.0564,4.7289e-05,4.65e-06,0.0,0 STARLINK-3764,1 52280U 22041V   24056.70808300  .00000465  00000-0  47289-4 0  9998,2 52280  53.2166 204.4962 0001232  91.0570 269.0564 15.08839529102206,6917.882,95.438,540.599,538.895,0.0
52280.0,STARLINK-3764,PAYLOAD,2024-02-26 13:39:41,15.08814475,0.0001216,53.2171,200.6313,101.42,258.6929,-0.00016057,-2.841e-05,0.0,0 STARLINK-3764,1 52280U 22041V   24057.56923122 -.00002841  00000-0 -16057-3 0  9993,2 52280  53.2171 200.6313 0001216 101.4200 258.6929 15.08814475102334,6917.958,95.439,540.665,538.982,0.0
52280.0,STARLINK-3764,PAYLOAD,2024-02-26 18:25:51,15.08817225,0.0001278,53.2176,199.7395,99.3625,260.7512,-0.00013013,-2.357e-05,0.0,0 STARLINK-3764,1 52280U 22041V   24057.76795164 -.00002357  00000-0 -13013-3 0  9999,2 52280  53.2176 199.7395 0001278  99.3625 260.7512 15.08817225103587,6917.95,95.439,540.699,538.931,0.0
52280.0,STARLINK-3764,PAYLOAD,2024-02-27 08:44:18,15.0883282,0.0001001,53.2166,197.0615,80.5694,279.5412,3.1725e-05,2.17e-06,0.0,0 STARLINK-3764,1 52280U 22041V   24058.36410137  .00000217  00000-0  31725-4 0  9992,2 52280  53.2166 197.0615 0001001  80.5694 279.5412 15.08832820103679,6917.902,95.438,540.46,539.075,0.0
52280.0,STARLINK-3764,PAYLOAD,2024-02-27 13:30:27,15.08836275,0.0001207,53.2171,196.1689,61.0142,299.0971,7.0857e-05,8.4e-06,0.0,0 STARLINK-3764,1 52280U 22041V   24058.56281885  .00000840  00000-0  70857-4 0  9991,2 52280  53.2171 196.1689 0001207  61.0142 299.0971 15.08836275102489,6917.892,95.438,540.592,538.922,0.0
52280.0,STARLINK-3764,PAYLOAD,2024-02-27 18:16:35,15.08854732,0.0001036,53.2167,195.2765,80.3834,279.7276,0.00019971,2.893e-05,0.0,0 STARLINK-3764,1 52280U 22041V   24058.76152263  .00002893  00000-0  19971-3 0  9999,2 52280  53.2167 195.2765 0001036  80.3834 279.7276 15.08854732103731,6917.835,95.437,540.417,538.984,0.0
52280.0,STARLINK-3764,PAYLOAD,2024-02-28 02:13:31,15.08848601,0.0001,53.2172,193.7901,87.589,272.5216,0.00011697,1.575e-05,0.0,0 STARLINK-3764,1 52280U 22041V   24059.09272767  .00001575  00000-0  11697-3 0  9991,2 52280  53.2172 193.7901 0001000  87.5890 272.5216 15.08848601103782,6917.854,95.437,540.411,539.027,0.0
52280.0,STARLINK-3764,PAYLOAD,2024-02-28 14:56:37,15.08833642,9.09e-05,53.2167,191.409,96.2525,263.8571,0.00027275,4.055e-05,0.0,0 STARLINK-3764,1 52280U 22041V   24059.62265245  .00004055  00000-0  27275-3 0  9998,2 52280  53.2167 191.4090 0000909  96.2525 263.8571 15.08833642102649,6917.9,95.438,540.394,539.136,0.0
52280.0,STARLINK-3764,PAYLOAD,2024-02-28 18:07:22,15.08844154,9.66e-05,53.2167,190.8124,104.723,255.3869,0.00026825,3.984e-05,0.0,0 STARLINK-3764,1 52280U 22041V   24059.75512628  .00003984  00000-0  26825-3 0  9992,2 52280  53.2167 190.8124 0000966 104.7230 255.3869 15.08844154102669,6917.868,95.437,540.401,539.064,0.0
52280.0,STARLINK-3764,PAYLOAD,2024-02-29 08:25:51,15.08849831,5.55e-05,53.2175,188.1387,70.0986,290.0066,-0.00011042,-2.045e-05,0.0,0 STARLINK-3764,1 52280U 22041V   24060.35129472 -.00002045  00000-0 -11042-3 0  9995,2 52280  53.2175 188.1387 0000555  70.0986 290.0066 15.08849831103973,6917.85,95.437,540.099,539.331,0.0
52280.0,STARLINK-3764,PAYLOAD,2024-02-29 14:47:23,15.08856563,0.0001145,53.2175,186.9501,95.9641,264.1481,-4.4039e-05,-9.89e-06,0.0,0 STARLINK-3764,1 52280U 22041V   24060.61624566 -.00000989  00000-0 -44039-4 0  9996,2 52280  53.2175 186.9501 0001145  95.9641 264.1481 15.08856563102799,6917.83,95.437,540.487,538.903,0.0
52280.0,STARLINK-3764,PAYLOAD,2024-03-01 11:27:24,15.08844029,0.0001223,53.2195,183.0857,104.2021,255.9107,-1.3864e-05,-5.09e-06,0.0,0 STARLINK-3764,1 52280U 22041V   24061.47736695 -.00000509  00000-0 -13864-4 0  9998,2 52280  53.2195 183.0857 0001223 104.2021 255.9107 15.08844029104144,6917.868,95.437,540.579,538.887,0.0
52280.0,STARLINK-3764,PAYLOAD,2024-03-01 14:38:10,15.08849258,0.0001297,53.2188,182.4902,111.2278,248.8853,-7.4484e-05,-1.473e-05,0.0,0 STARLINK-3764,1 52280U 22041V   24061.60984464 -.00001473  00000-0 -74484-4 0  9998,2 52280  53.2188 182.4902 0001297 111.2278 248.8853 15.08849258102947,6917.852,95.437,540.614,538.82,0.0
52280.0,STARLINK-3764,PAYLOAD,2024-03-02 11:18:11,15.08837666,0.0001202,53.2177,178.6247,98.223,261.8898,-5.0644e-05,-1.094e-05,0.0,0 STARLINK-3764,1 52280U 22041V   24062.47097155 -.00001094  00000-0 -50644-4 0  9997,2 52280  53.2177 178.6247 0001202  98.2230 261.8898 15.08837666104296,6917.888,95.438,540.584,538.921,0.0
52280.0,STARLINK-3764,PAYLOAD,2024-03-02 12:53:35,15.08838022,0.0001208,53.2178,178.3273,98.3364,261.7765,-4.7705e-05,-1.047e-05,0.0,0 STARLINK-3764,1 52280U 22041V   24062.53721131 -.00001047  00000-0 -47705-4 0  9994,2 52280  53.2178 178.3273 0001208  98.3364 261.7765 15.08838022103083,6917.886,95.438,540.587,538.916,0.0
52280.0,STARLINK-3764,PAYLOAD,2024-03-03 14:19:44,15.08839965,0.0001271,53.2177,173.5688,95.0304,265.0833,7.6184e-05,9.25e-06,0.0,0 STARLINK-3764,1 52280U 22041V   24063.59704788  .00000925  00000-0  76184-4 0  9995,2 52280  53.2177 173.5688 0001271  95.0304 265.0833 15.08839965103245,6917.88,95.438,540.625,538.866,0.0
52280.0,STARLINK-3764,PAYLOAD,2024-03-04 12:35:09,15.08839821,0.0001309,53.2174,169.4119,101.1882,258.9257,7.3622e-05,8.84e-06,0.0,0 STARLINK-3764,1 52280U 22041V   24064.52441014  .00000884  00000-0  73622-4 0  9997,2 52280  53.2174 169.4119 0001309 101.1882 258.9257 15.08839821103384,6917.881,95.438,540.651,538.84,0.0
52280.0,STARLINK-3764,PAYLOAD,2024-03-04 14:10:32,15.08841439,0.0001295,53.2176,169.1139,101.3435,258.7702,8.7294e-05,1.102e-05,0.0,0 STARLINK-3764,1 52280U 22041V   24064.59064869  .00001102  00000-0  87294-4 0  9997,2 52280  53.2176 169.1139 0001295 101.3435 258.7702 15.08841439103397,6917.876,95.437,540.637,538.845,0.0
52280.0,STARLINK-3764,PAYLOAD,2024-03-05 14:01:20,15.08832771,0.0001387,53.2174,164.6528,81.0887,279.0262,-2.2871e-05,-6.52e-06,0.0,0 STARLINK-3764,1 52280U 22041V   24065.58426442 -.00000652  00000-0 -22871-4 0  9997,2 52280  53.2174 164.6528 0001387  81.0887 279.0262 15.08832771103547,6917.902,95.438,540.727,538.808,0.0
52280.0,STARLINK-3764,PAYLOAD,2024-03-05 15:36:42,15.08841789,0.0001276,53.2171,164.3514,118.0511,242.061,5.9194e-05,6.54e-06,0.0,0 STARLINK-3764,1 52280U 22041V   24065.65049419  .00000654  00000-0  59194-4 0  9998,2 52280  53.2171 164.3514 0001276 118.0511 242.0610 15.08841789104770,6917.875,95.437,540.623,538.857,0.0
52280.0,STARLINK-3764,PAYLOAD,2024-03-06 10:41:19,15.08844737,0.0001198,53.2178,160.7839,59.5944,300.5167,-0.0001115,-2.062e-05,0.0,0 STARLINK-3764,1 52280U 22041V   24066.44536067 -.00002062  00000-0 -11150-3 0  9992,2 52280  53.2178 160.7839 0001198  59.5944 300.5167 15.08844737104895,6917.866,95.437,540.56,538.902,0.0
52280.0,STARLINK-3764,PAYLOAD,2024-03-06 13:52:06,15.0883349,0.0001215,53.2177,160.1914,84.3337,275.7794,-0.00017027,-2.996e-05,0.0,0 STARLINK-3764,1 52280U 22041V   24066.57784808 -.00002996  00000-0 -17027-3 0  9999,2 52280  53.2177 160.1914 0001215  84.3337 275.7794 15.08833490103694,6917.9,95.438,540.606,538.925,0.0
52280.0,STARLINK-3764,PAYLOAD,2024-03-07 12:07:30,15.0882673,0.0001601,53.2179,156.031,63.893,296.2227,-6.105e-05,-1.259e-05,0.0,0 STARLINK-3764,1 52280U 22041V   24067.50521906 -.00001259  00000-0 -61050-4 0  9998,2 52280  53.2179 156.0310 0001601  63.8930 296.2227 15.08826730103834,6917.921,95.438,540.894,538.678,0.0
52280.0,STARLINK-3764,PAYLOAD,2024-03-08 11:58:16,15.08840225,0.0001133,53.2173,151.5669,87.8738,272.2384,4.1937e-05,3.8e-06,0.0,0 STARLINK-3764,1 52280U 22041V   24068.49880226  .00000380  00000-0  41937-4 0  9994,2 52280  53.2173 151.5669 0001133  87.8738 272.2384 15.08840225105203,6917.88,95.438,540.528,538.961,0.0
52280.0,STARLINK-3764,PAYLOAD,2024-03-08 15:09:02,15.08859784,0.0001295,53.2164,150.9708,89.768,270.3461,-0.00014564,-2.606e-05,0.0,0 STARLINK-3764,1 52280U 22041V   24068.63127394 -.00002606  00000-0 -14564-3 0  9990,2 52280  53.2164 150.9708 0001295  89.7680 270.3461 15.08859784105223,6917.82,95.436,540.581,538.789,0.0
52280.0,STARLINK-3764,PAYLOAD,2024-03-09 11:49:04,15.08833036,0.0001482,53.2179,147.1048,103.0518,257.0639,0.00011101,1.479e-05,0.0,0 STARLINK-3764,1 52280U 22041V   24069.49241556  .00001479  00000-0  11101-3 0  9991,2 52280  53.2179 147.1048 0001482 103.0518 257.0639 15.08833036105357,6917.902,95.438,540.792,538.741,0.0
